STARLINK-2193           
1 47770U 21017BA  26068.60420273  .00011840  00000+0  42196-3 0  9990
2 47770  53.1561 204.2135 0001479  81.7750 278.3418 15.29357492277853
LUR-1                   
1 60506U 24149AQ  26068.79566301  .00009121  00000+0  32985-3 0  9998
2 60506  97.3790 148.4255 0002777 309.1571  50.9421 15.28658648 86785
